[{"OBJECT_NAME":"ALOS (DAICHI)","OBJECT_ID":"2006-002A","EPOCH":"2026-04-23T07:05:24.727776","MEAN_MOTION":14.69932092,"ECCENTRICITY":0.00018873,"INCLINATION":98.1283,"RA_OF_ASC_NODE":69.0527,"ARG_OF_PERICENTER":106.6004,"MEAN_ANOMALY":253.5409,"EPHEMERIS_TYPE":0,"CLASSIFICATION_TYPE":"U","NORAD_CAT_ID":28931,"ELEMENT_SET_NO":999,"REV_AT_EPOCH":8003,"BSTAR":0.00014487865,"MEAN_MOTION_DOT":8.18e-6,"MEAN_MOTION_DDOT":0},{"OBJECT_NAME":"H-2A R/B","OBJECT_ID":"2006-002B","EPOCH":"2026-04-23T03:14:44.551104","MEAN_MOTION":15.17338828,"ECCENTRICITY":0.00526032,"INCLINATION":98.25,"RA_OF_ASC_NODE":264.0378,"ARG_OF_PERICENTER":90.7058,"MEAN_ANOMALY":270.0201,"EPHEMERIS_TYPE":0,"CLASSIFICATION_TYPE":"U","NORAD_CAT_ID":28932,"ELEMENT_SET_NO":999,"REV_AT_EPOCH":10117,"BSTAR":0.00028223871,"MEAN_MOTION_DOT":5.753e-5,"MEAN_MOTION_DDOT":0},{"OBJECT_NAME":"RESURS-DK 1","OBJECT_ID":"2006-021A","EPOCH":"2026-04-23T00:47:28.924224","MEAN_MOTION":15.12972223,"ECCENTRICITY":0.00030233,"INCLINATION":69.9297,"RA_OF_ASC_NODE":122.2987,"ARG_OF_PERICENTER":345.7854,"MEAN_ANOMALY":14.3226,"EPHEMERIS_TYPE":0,"CLASSIFICATION_TYPE":"U","NORAD_CAT_ID":29228,"ELEMENT_SET_NO":999,"REV_AT_EPOCH":9423,"BSTAR":9.8042344e-5,"MEAN_MOTION_DOT":1.626e-5,"MEAN_MOTION_DDOT":0},{"OBJECT_NAME":"CZ-4B R/B","OBJECT_ID":"2006-046C","EPOCH":"2026-04-23T03:06:28.540800","MEAN_MOTION":15.17325741,"ECCENTRICITY":0.00345837,"INCLINATION":97.551,"RA_OF_ASC_NODE":157.9108,"ARG_OF_PERICENTER":112.8103,"MEAN_ANOMALY":247.6789,"EPHEMERIS_TYPE":0,"CLASSIFICATION_TYPE":"U","NORAD_CAT_ID":29507,"ELEMENT_SET_NO":999,"REV_AT_EPOCH":6678,"BSTAR":0.00018303413,"MEAN_MOTION_DOT":3.636e-5,"MEAN_MOTION_DDOT":0},{"OBJECT_NAME":"CZ-2C R/B","OBJECT_ID":"2007-010B","EPOCH":"2026-04-23T07:42:04.526208","MEAN_MOTION":14.20261466,"ECCENTRICITY":0.00594246,"INCLINATION":98.4032,"RA_OF_ASC_NODE":224.3735,"ARG_OF_PERICENTER":163.419,"MEAN_ANOMALY":196.8949,"EPHEMERIS_TYPE":0,"CLASSIFICATION_TYPE":"U","NORAD_CAT_ID":31114,"ELEMENT_SET_NO":999,"REV_AT_EPOCH":98605,"BSTAR":5.5926597e-5,"MEAN_MOTION_DOT":8.1e-7,"MEAN_MOTION_DDOT":0},{"OBJECT_NAME":"COSMO-SKYMED 1","OBJECT_ID":"2007-023A","EPOCH":"2026-04-23T06:09:45.417888","MEAN_MOTION":14.96823855,"ECCENTRICITY":0.00011516,"INCLINATION":97.8869,"RA_OF_ASC_NODE":304.6559,"ARG_OF_PERICENTER":99.9219,"MEAN_ANOMALY":260.2133,"EPHEMERIS_TYPE":0,"CLASSIFICATION_TYPE":"U","NORAD_CAT_ID":31598,"ELEMENT_SET_NO":999,"REV_AT_EPOCH":2157,"BSTAR":0.00016998485,"MEAN_MOTION_DOT":1.887e-5,"MEAN_MOTION_DDOT":0},{"OBJECT_NAME":"COSMOS 2428","OBJECT_ID":"2007-029A","EPOCH":"2026-04-23T01:33:14.746464","MEAN_MOTION":14.12946038,"ECCENTRICITY":0.00092117,"INCLINATION":70.9391,"RA_OF_ASC_NODE":110.2022,"ARG_OF_PERICENTER":228.4724,"MEAN_ANOMALY":131.5608,"EPHEMERIS_TYPE":0,"CLASSIFICATION_TYPE":"U","NORAD_CAT_ID":31792,"ELEMENT_SET_NO":999,"REV_AT_EPOCH":97036,"BSTAR":-8.5178419e-5,"MEAN_MOTION_DOT":-2.07e-6,"MEAN_MOTION_DDOT":0},{"OBJECT_NAME":"SL-16 R/B","OBJECT_ID":"2007-029B","EPOCH":"2026-04-23T03:58:40.328256","MEAN_MOTION":14.14843239,"ECCENTRICITY":0.00025323,"INCLINATION":70.9739,"RA_OF_ASC_NODE":78.8894,"ARG_OF_PERICENTER":268.4773,"MEAN_ANOMALY":102.4388,"EPHEMERIS_TYPE":0,"CLASSIFICATION_TYPE":"U","NORAD_CAT_ID":31793,"ELEMENT_SET_NO":999,"REV_AT_EPOCH":97166,"BSTAR":0.00015275884,"MEAN_MOTION_DOT":2.47e-6,"MEAN_MOTION_DDOT":0},{"OBJECT_NAME":"KORONAS-FOTON","OBJECT_ID":"2009-003A","EPOCH":"2026-04-23T06:57:24.877728","MEAN_MOTION":15.44497311,"ECCENTRICITY":0.00099622,"INCLINATION":82.4309,"RA_OF_ASC_NODE":229.4659,"ARG_OF_PERICENTER":0.9246,"MEAN_ANOMALY":359.2018,"EPHEMERIS_TYPE":0,"CLASSIFICATION_TYPE":"U","NORAD_CAT_ID":33504,"ELEMENT_SET_NO":999,"REV_AT_EPOCH":95262,"BSTAR":0.00020248427,"MEAN_MOTION_DOT":9.437e-5,"MEAN_MOTION_DDOT":0},{"OBJECT_NAME":"CZ-2C R/B","OBJECT_ID":"2011-030B","EPOCH":"2026-04-23T04:50:05.782848","MEAN_MOTION":14.813496,"ECCENTRICITY":0.00517185,"INCLINATION":97.8614,"RA_OF_ASC_NODE":69.6009,"ARG_OF_PERICENTER":204.0273,"MEAN_ANOMALY":253.2203,"EPHEMERIS_TYPE":0,"CLASSIFICATION_TYPE":"U","NORAD_CAT_ID":37731,"ELEMENT_SET_NO":999,"REV_AT_EPOCH":79668,"BSTAR":9.0921654e-5,"MEAN_MOTION_DOT":6.71e-6,"MEAN_MOTION_DDOT":0},{"OBJECT_NAME":"H-2A R/B","OBJECT_ID":"2012-025E","EPOCH":"2026-04-22T21:26:23.890848","MEAN_MOTION":14.95427446,"ECCENTRICITY":0.0044367,"INCLINATION":98.4797,"RA_OF_ASC_NODE":83.51,"ARG_OF_PERICENTER":166.3656,"MEAN_ANOMALY":193.8773,"EPHEMERIS_TYPE":0,"CLASSIFICATION_TYPE":"U","NORAD_CAT_ID":38341,"ELEMENT_SET_NO":999,"REV_AT_EPOCH":75482,"BSTAR":0.00010949,"MEAN_MOTION_DOT":1.163e-5,"MEAN_MOTION_DDOT":0},{"OBJECT_NAME":"SHIJIAN-16 (SJ-16)","OBJECT_ID":"2013-057A","EPOCH":"2026-04-23T06:35:27.137760","MEAN_MOTION":14.92470208,"ECCENTRICITY":0.00160803,"INCLINATION":74.9708,"RA_OF_ASC_NODE":100.6742,"ARG_OF_PERICENTER":358.3132,"MEAN_ANOMALY":1.7999,"EPHEMERIS_TYPE":0,"CLASSIFICATION_TYPE":"U","NORAD_CAT_ID":39358,"ELEMENT_SET_NO":999,"REV_AT_EPOCH":67815,"BSTAR":9.7306251e-5,"MEAN_MOTION_DOT":9.71e-6,"MEAN_MOTION_DDOT":0},{"OBJECT_NAME":"SL-4 R/B","OBJECT_ID":"2014-021B","EPOCH":"2026-04-23T03:30:06.306912","MEAN_MOTION":15.40615325,"ECCENTRICITY":0.00928245,"INCLINATION":51.6055,"RA_OF_ASC_NODE":120.146,"ARG_OF_PERICENTER":265.6477,"MEAN_ANOMALY":93.3897,"EPHEMERIS_TYPE":0,"CLASSIFICATION_TYPE":"U","NORAD_CAT_ID":39679,"ELEMENT_SET_NO":999,"REV_AT_EPOCH":66312,"BSTAR":0.00019900976,"MEAN_MOTION_DOT":9.143e-5,"MEAN_MOTION_DDOT":0},{"OBJECT_NAME":"ALOS-2","OBJECT_ID":"2014-029A","EPOCH":"2026-04-23T06:56:04.512768","MEAN_MOTION":14.79466132,"ECCENTRICITY":0.00017851,"INCLINATION":97.9199,"RA_OF_ASC_NODE":211.2379,"ARG_OF_PERICENTER":88.8362,"MEAN_ANOMALY":271.3054,"EPHEMERIS_TYPE":0,"CLASSIFICATION_TYPE":"U","NORAD_CAT_ID":39766,"ELEMENT_SET_NO":999,"REV_AT_EPOCH":64346,"BSTAR":-2.990938e-6,"MEAN_MOTION_DOT":-7.4e-7,"MEAN_MOTION_DDOT":0},{"OBJECT_NAME":"YAOGAN-29","OBJECT_ID":"2015-069A","EPOCH":"2026-04-23T07:48:32.776704","MEAN_MOTION":14.83040372,"ECCENTRICITY":0.00016272,"INCLINATION":98.0078,"RA_OF_ASC_NODE":141.8621,"ARG_OF_PERICENTER":143.488,"MEAN_ANOMALY":216.6445,"EPHEMERIS_TYPE":0,"CLASSIFICATION_TYPE":"U","NORAD_CAT_ID":41038,"ELEMENT_SET_NO":999,"REV_AT_EPOCH":56249,"BSTAR":6.7579703e-5,"MEAN_MOTION_DOT":4.96e-6,"MEAN_MOTION_DDOT":0},{"OBJECT_NAME":"ASTRO-H (HITOMI)","OBJECT_ID":"2016-012A","EPOCH":"2026-04-23T04:23:45.997728","MEAN_MOTION":15.10258699,"ECCENTRICITY":0.00094069,"INCLINATION":30.9993,"RA_OF_ASC_NODE":69.3537,"ARG_OF_PERICENTER":59.0319,"MEAN_ANOMALY":301.1243,"EPHEMERIS_TYPE":0,"CLASSIFICATION_TYPE":"U","NORAD_CAT_ID":41337,"ELEMENT_SET_NO":999,"REV_AT_EPOCH":55896,"BSTAR":0.00013217149,"MEAN_MOTION_DOT":2.313e-5,"MEAN_MOTION_DDOT":0},{"OBJECT_NAME":"HXMT (HUIYAN)","OBJECT_ID":"2017-034A","EPOCH":"2026-04-23T06:22:22.509120","MEAN_MOTION":15.17973255,"ECCENTRICITY":0.00310513,"INCLINATION":43.0136,"RA_OF_ASC_NODE":128.739,"ARG_OF_PERICENTER":159.224,"MEAN_ANOMALY":200.9877,"EPHEMERIS_TYPE":0,"CLASSIFICATION_TYPE":"U","NORAD_CAT_ID":42758,"ELEMENT_SET_NO":999,"REV_AT_EPOCH":48931,"BSTAR":0.0001218529,"MEAN_MOTION_DOT":2.305e-5,"MEAN_MOTION_DDOT":0}]
