ALOS (DAICHI)           
1 28931U 06002A   26113.29542509  .00000818  00000+0  14488-3 0  9994
2 28931  98.1283  69.0527 0001887 106.6004 253.5409 14.69932092 80030
H-2A R/B                
1 28932U 06002B   26113.13523786  .00005753  00000+0  28224-3 0  9990
2 28932  98.2500 264.0378 0052603  90.7058 270.0201 15.17338828101173
RESURS-DK 1             
1 29228U 06021A   26113.03297366  .00001626  00000+0  98042-4 0  9992
2 29228  69.9297 122.2987 0003023 345.7854  14.3226 15.12972223 94232
CZ-4B R/B               
1 29507U 06046C   26113.12949700  .00003636  00000+0  18303-3 0  9999
2 29507  97.5510 157.9108 0034583 112.8103 247.6789 15.17325741 66788
CZ-2C R/B               
1 31114U 07010B   26113.32088572  .00000081  00000+0  55927-4 0  9996
2 31114  98.4032 224.3735 0059424 163.4190 196.8949 14.20261466986058
COSMO-SKYMED 1          
1 31598U 07023A   26113.25677567  .00001887  00000+0  16998-3 0  9995
2 31598  97.8869 304.6559 0001151  99.9219 260.2133 14.96823855 21577
COSMOS 2428             
1 31792U 07029A   26113.06475401 -.00000207  00000+0 -85178-4 0  9993
2 31792  70.9391 110.2022 0009211 228.4724 131.5608 14.12946038970360
SL-16 R/B               
1 31793U 07029B   26113.16574454  .00000247  00000+0  15276-3 0  9996
2 31793  70.9739  78.8894 0002532 268.4773 102.4388 14.14843239971667
KORONAS-FOTON           
1 33504U 09003A   26113.28987127  .00009437  00000+0  20248-3 0  9995
2 33504  82.4309 229.4659 0009962   0.9246 359.2018 15.44497311952628
CZ-2C R/B               
1 37731U 11030B   26113.20145582  .00000671  00000+0  90922-4 0  9995
2 37731  97.8614  69.6009 0051718 204.0273 253.2203 14.81349600796687
H-2A R/B                
1 38341U 12025E   26112.89333207  .00001163  00000+0  10949-3 0  9992
2 38341  98.4797  83.5100 0044367 166.3656 193.8773 14.95427446754829
SHIJIAN-16 (SJ-16)      
1 39358U 13057A   26113.27461965  .00000971  00000+0  97306-4 0  9992
2 39358  74.9708 100.6742 0016080 358.3132   1.7999 14.92470208678154
SL-4 R/B                
1 39679U 14021B   26113.14590633  .00009143  00000+0  19901-3 0  9995
2 39679  51.6055 120.1460 0092824 265.6477  93.3897 15.40615325663123
ALOS-2                  
1 39766U 14029A   26113.28894112 -.00000074  00000+0 -29909-5 0  9991
2 39766  97.9199 211.2379 0001785  88.8362 271.3054 14.79466132643466
YAOGAN-29               
1 41038U 15069A   26113.32537936  .00000496  00000+0  67580-4 0  9996
2 41038  98.0078 141.8621 0001627 143.4880 216.6445 14.83040372562493
ASTRO-H (HITOMI)        
1 41337U 16012A   26113.18317127  .00002313  00000+0  13217-3 0  9996
2 41337  30.9993  69.3537 0009406  59.0319 301.1243 15.10258699558965
HXMT (HUIYAN)           
1 42758U 17034A   26113.26553830  .00002305  00000+0  12185-3 0  9995
2 42758  43.0136 128.7390 0031051 159.2240 200.9877 15.17973255489311
